NORAD_CAT_ID,OBJECT_NAME,OBJECT_TYPE,EPOCH,MEAN_MOTION,ECCENTRICITY,INCLINATION,RA_OF_ASC_NODE,ARG_OF_PERICENTER,MEAN_ANOMALY,BSTAR,MEAN_MOTION_DOT,MEAN_MOTION_DDOT,TLE_LINE0,TLE_LINE1,TLE_LINE2,SEMIMAJOR_AXIS,PERIOD,APOGEE,PERIGEE,DECAYED
55668.0,STARLINK-5455,PAYLOAD,2024-03-05 20:50:03,14.98321115,0.0003112,69.9998,214.7394,262.6844,97.3961,-8.3482e-05,-1.089e-05,0.0,0 STARLINK-5455,1 55668U 23021AS  24065.86809263 -.00001089  00000-0 -83482-4 0  9996,2 55668  69.9998 214.7394 0003112 262.6844  97.3961 14.98321115 59061,6950.22,96.108,574.248,569.922,0.0
55668.0,STARLINK-5455,PAYLOAD,2024-03-06 11:15:15,14.98329397,0.0002997,70.0002,213.2255,266.8004,93.2812,-0.0001255,-1.59e-05,0.0,0 STARLINK-5455,1 55668U 23021AS  24066.46893013 -.00001590  00000-0 -12550-3 0  9993,2 55668  70.0002 213.2255 0002997 266.8004  93.2812 14.98329397 59154,6950.195,96.107,574.143,569.977,0.0
55668.0,STARLINK-5455,PAYLOAD,2024-03-06 14:27:31,14.98329334,0.0003013,70.0002,212.8889,266.8186,93.2628,-0.0001175,-1.495e-05,0.0,0 STARLINK-5455,1 55668U 23021AS  24066.60245007 -.00001495  00000-0 -11750-3 0  9998,2 55668  70.0002 212.8889 0003013 266.8186  93.2628 14.98329334 59474,6950.195,96.107,574.154,569.966,0.0
55668.0,STARLINK-5455,PAYLOAD,2024-03-07 14:29:32,14.98319759,0.0002969,70.0,210.3628,267.9582,92.1237,0.00016537,1.88e-05,0.0,0 STARLINK-5455,1 55668U 23021AS  24067.60385084  .00001880  00000-0  16537-3 0  9993,2 55668  70.0000 210.3628 0002969 267.9582  92.1237 14.98319759 59628,6950.225,96.108,574.153,570.026,0.0
55668.0,STARLINK-5455,PAYLOAD,2024-03-08 03:18:36,14.9832936,0.000297,70.0004,209.017,270.1083,89.9736,0.00011045,1.225e-05,0.0,0 STARLINK-5455,1 55668U 23021AS  24068.13792806  .00001225  00000-0  11045-3 0  9998,2 55668  70.0004 209.0170 0002970 270.1083  89.9736 14.98329360 59406,6950.195,96.107,574.124,569.996,0.0
55668.0,STARLINK-5455,PAYLOAD,2024-03-08 11:19:16,14.98335967,0.0003035,70.0002,208.1754,270.3593,89.7219,8.388e-05,9.08e-06,0.0,0 STARLINK-5455,1 55668U 23021AS  24068.47172433  .00000908  00000-0  83880-4 0  9997,2 55668  70.0002 208.1754 0003035 270.3593  89.7219 14.98335967 59755,6950.174,96.107,574.149,569.93,0.0
55668.0,STARLINK-5455,PAYLOAD,2024-03-08 19:19:56,14.9834113,0.0002995,70.0003,207.3338,270.2498,89.8318,0.0001353,1.522e-05,0.0,0 STARLINK-5455,1 55668U 23021AS  24068.80551793  .00001522  00000-0  13530-3 0  9991,2 55668  70.0003 207.3338 0002995 270.2498  89.8318 14.98341130 59505,6950.158,96.106,574.105,569.942,0.0
55668.0,STARLINK-5455,PAYLOAD,2024-03-09 11:21:18,14.98331962,0.00026,70.0004,205.6502,273.3173,86.7689,-3.7751e-05,-5.43e-06,0.0,0 STARLINK-5455,1 55668U 23021AS  24069.47312788 -.00000543  00000-0 -37751-4 0  9990,2 55668  70.0004 205.6502 0002600 273.3173  86.7689 14.98331962 59607,6950.187,96.107,573.859,570.245,0.0
55668.0,STARLINK-5455,PAYLOAD,2024-03-10 11:23:19,14.98332841,0.0002671,69.9987,203.1237,263.0666,97.0189,-0.00011315,-1.443e-05,0.0,0 STARLINK-5455,1 55668U 23021AS  24070.47452834 -.00001443  00000-0 -11315-3 0  9996,2 55668  69.9987 203.1237 0002671 263.0666  97.0189 14.98332841 59756,6950.184,96.107,573.905,570.193,0.0
55668.0,STARLINK-5455,PAYLOAD,2024-03-10 14:35:35,14.98323984,0.0002731,69.9989,202.7875,261.6638,98.4212,1.3116e-05,6.4e-07,0.0,0 STARLINK-5455,1 55668U 23021AS  24070.60805087  .00000064  00000-0  13116-4 0  9991,2 55668  69.9989 202.7875 0002731 261.6638  98.4212 14.98323984 60078,6950.211,96.107,573.975,570.178,0.0
55668.0,STARLINK-5455,PAYLOAD,2024-03-11 11:25:20,14.98328288,0.0003059,69.9999,200.6014,270.7812,89.2996,4.8984e-05,4.91e-06,0.0,0 STARLINK-5455,1 55668U 23021AS  24071.47592668  .00000491  00000-0  48984-4 0  9990,2 55668  69.9999 200.6014 0003059 270.7812  89.2996 14.98328288 59909,6950.198,96.107,574.189,569.937,0.0
55668.0,STARLINK-5455,PAYLOAD,2024-03-11 14:37:36,14.98330475,0.0003002,70.0002,200.2652,269.6895,90.392,7.1549e-05,7.61e-06,0.0,0 STARLINK-5455,1 55668U 23021AS  24071.60944475  .00000761  00000-0  71549-4 0  9995,2 55668  70.0002 200.2652 0003002 269.6895  90.3920 14.98330475 60225,6950.191,96.107,574.143,569.97,0.0
55668.0,STARLINK-5455,PAYLOAD,2024-03-12 11:27:21,14.98326913,0.0002955,70.0,198.0772,270.9898,89.0922,3.0833e-05,2.75e-06,0.0,0 STARLINK-5455,1 55668U 23021AS  24072.47732883  .00000275  00000-0  30833-4 0  9990,2 55668  70.0000 198.0772 0002955 270.9898  89.0922 14.98326913 60054,6950.202,96.107,574.121,570.014,0.0
55668.0,STARLINK-5455,PAYLOAD,2024-03-12 14:39:37,14.98328282,0.0002798,69.9996,197.7389,264.1326,95.9514,4.1361e-05,4.01e-06,0.0,0 STARLINK-5455,1 55668U 23021AS  24072.61084737  .00000401  00000-0  41361-4 0  9993,2 55668  69.9996 197.7389 0002798 264.1326  95.9514 14.98328282 60370,6950.198,96.107,574.008,570.119,0.0
55668.0,STARLINK-5455,PAYLOAD,2024-03-13 09:53:12,14.98350605,0.0002318,69.9992,195.7182,273.0225,87.0669,0.0002159,2.485e-05,0.0,0 STARLINK-5455,1 55668U 23021AS  24073.41194890  .00002485  00000-0  21590-3 0  9999,2 55668  69.9992 195.7182 0002318 273.0225  87.0669 14.98350605 60197,6950.129,96.106,573.605,570.383,0.0
55668.0,STARLINK-5455,PAYLOAD,2024-03-13 14:41:35,14.98355741,0.0002876,69.9988,195.2129,269.9597,90.1232,0.00024903,2.882e-05,0.0,0 STARLINK-5455,1 55668U 23021AS  24073.61222157  .00002882  00000-0  24903-3 0  9991,2 55668  69.9988 195.2129 0002876 269.9597  90.1232 14.98355741 60527,6950.113,96.105,573.977,569.979,0.0
55668.0,STARLINK-5455,PAYLOAD,2024-03-13 17:53:51,14.98356437,0.0002841,69.9988,194.8763,270.0863,89.997,0.00024981,2.891e-05,0.0,0 STARLINK-5455,1 55668U 23021AS  24073.74573912  .00002891  00000-0  24981-3 0  9999,2 55668  69.9988 194.8763 0002841 270.0863  89.9970 14.98356437 60547,6950.111,96.105,573.951,570.002,0.0
55668.0,STARLINK-5455,PAYLOAD,2024-03-14 06:42:57,14.98333103,0.0002368,69.9994,193.5303,271.322,88.7668,5.1637e-05,5.23e-06,0.0,0 STARLINK-5455,1 55668U 23021AS  24074.27983729  .00000523  00000-0  51637-4 0  9998,2 55668  69.9994 193.5303 0002368 271.3220  88.7668 14.98333103 60620,6950.183,96.107,573.694,570.402,0.0
55668.0,STARLINK-5455,PAYLOAD,2024-03-14 11:31:22,14.98327153,0.0002977,69.9989,193.0256,262.6149,97.4671,-5.9854e-05,-8.07e-06,0.0,0 STARLINK-5455,1 55668U 23021AS  24074.48012262 -.00000807  00000-0 -59854-4 0  9992,2 55668  69.9989 193.0256 0002977 262.6149  97.4671 14.98327153 60354,6950.202,96.107,574.136,569.998,0.0
55668.0,STARLINK-5455,PAYLOAD,2024-03-14 17:55:55,14.98320569,0.0002486,69.999,192.3518,272.1913,87.8962,-0.00012226,-1.551e-05,0.0,0 STARLINK-5455,1 55668U 23021AS  24074.74717042 -.00001551  00000-0 -12226-3 0  9997,2 55668  69.9990 192.3518 0002486 272.1913  87.8962 14.98320569 60393,6950.222,96.108,573.815,570.359,0.0
55668.0,STARLINK-5455,PAYLOAD,2024-03-15 11:33:23,14.98336197,0.0002481,69.9997,190.5019,263.1804,96.9072,-0.00017742,-2.209e-05,0.0,0 STARLINK-5455,1 55668U 23021AS  24075.48152205 -.00002209  00000-0 -17742-3 0  9992,2 55668  69.9997 190.5019 0002481 263.1804  96.9072 14.98336197 60500,6950.174,96.107,573.763,570.314,0.0
55668.0,STARLINK-5455,PAYLOAD,2024-03-16 11:35:24,14.98319822,0.0002701,70.0003,187.9778,261.0245,99.0608,3.8781e-05,3.7e-06,0.0,0 STARLINK-5455,1 55668U 23021AS  24076.48292597  .00000370  00000-0  38781-4 0  9994,2 55668  70.0003 187.9778 0002701 261.0245  99.0608 14.98319822 60655,6950.224,96.108,573.967,570.212,0.0
55668.0,STARLINK-5455,PAYLOAD,2024-03-16 14:47:41,14.98318072,0.0002745,70.0005,187.6417,262.9589,97.1258,2.0206e-05,1.48e-06,0.0,0 STARLINK-5455,1 55668U 23021AS  24076.61644865  .00000148  00000-0  20206-4 0  9994,2 55668  70.0005 187.6417 0002745 262.9589  97.1258 14.98318072 60974,6950.23,96.108,574.003,570.187,0.0
55668.0,STARLINK-5455,PAYLOAD,2024-03-16 16:23:49,14.98319011,0.0002733,70.0007,187.4736,263.9782,96.1065,3.299e-05,3.01e-06,0.0,0 STARLINK-5455,1 55668U 23021AS  24076.68320823  .00000301  00000-0  32990-4 0  9990,2 55668  70.0007 187.4736 0002733 263.9782  96.1065 14.98319011 60981,6950.227,96.108,573.991,570.192,0.0
55668.0,STARLINK-5455,PAYLOAD,2024-03-17 13:13:33,14.98328414,0.0003123,70.0007,185.2861,278.4326,81.6479,4.0416e-05,3.89e-06,0.0,0 STARLINK-5455,1 55668U 23021AS  24077.55108565  .00000389  00000-0  40416-4 0  9992,2 55668  70.0007 185.2861 0003123 278.4326  81.6479 14.98328414 61116,6950.198,96.107,574.233,569.892,0.0
55668.0,STARLINK-5455,PAYLOAD,2024-03-17 16:25:49,14.98331251,0.0002943,70.0008,184.9496,274.0141,86.0681,6.9504e-05,7.36e-06,0.0,0 STARLINK-5455,1 55668U 23021AS  24077.68460276  .00000736  00000-0  69504-4 0  9991,2 55668  70.0008 184.9496 0002943 274.0141  86.0681 14.98331251 60838,6950.189,96.107,574.099,570.009,0.0
55668.0,STARLINK-5455,PAYLOAD,2024-03-18 11:39:26,14.98324156,0.0002685,70.0015,182.9308,268.2754,91.8097,4.9679e-05,5e-06,0.0,0 STARLINK-5455,1 55668U 23021AS  24078.48572903  .00000500  00000-0  49679-4 0  9991,2 55668  70.0015 182.9308 0002685 268.2754  91.8097 14.98324156 60958,6950.211,96.107,573.942,570.21,0.0
55668.0,STARLINK-5455,PAYLOAD,2024-03-19 10:05:18,14.98337414,0.0002436,70.0027,180.5761,245.6788,114.4116,7.5925e-05,8.13e-06,0.0,0 STARLINK-5455,1 55668U 23021AS  24079.42035778  .00000813  00000-0  75925-4 0  9990,2 55668  70.0027 180.5761 0002436 245.6788 114.4116 14.98337414 61392,6950.17,96.107,573.728,570.342,0.0
55668.0,STARLINK-5455,PAYLOAD,2024-03-19 13:17:35,14.98335717,0.0002482,70.0028,180.2399,248.8561,111.2333,4.8103e-05,4.81e-06,0.0,0 STARLINK-5455,1 55668U 23021AS  24079.55387929  .00000481  00000-0  48103-4 0  9991,2 55668  70.0028 180.2399 0002482 248.8561 111.2333 14.98335717 61112,6950.175,96.107,573.765,570.315,0.0
55668.0,STARLINK-5455,PAYLOAD,2024-03-20 10:07:21,14.9832541,0.0003047,70.0006,178.046,267.0302,93.0509,-4.8184e-05,-6.68e-06,0.0,0 STARLINK-5455,1 55668U 23021AS  24080.42177105 -.00000668  00000-0 -48184-4 0  9990,2 55668  70.0006 178.0460 0003047 267.0302  93.0509 14.98325410 61241,6950.207,96.107,574.19,569.954,0.0
